{"type": "FeatureCollection", "features": [ {"type": "Feature", "properties": {"norad_id": 30396, "name": "FENGYUN 1C DEB", "group": "fengyun-1c-debris", "lat": 33.332279300615355, "lon": -8.769972281491599, "alt_km": 917.7132183117974, "timestamp": "2025-12-18T13:51:49.959966+00:00", "meta": {"OBJECT_NAME": "FENGYUN 1C DEB", "OBJECT_ID": "1999-025ADK", "EPOCH": "2025-12-17T20:57:27.156672", "MEAN_MOTION": 13.87170388, "ECCENTRICITY": 0.01351583, "INCLINATION": 98.2238, "RA_OF_ASC_NODE": 356.0675, "ARG_OF_PERICENTER": 115.6176, "MEAN_ANOMALY": 3.8741, "EPHEMERIS_TYPE": 0, "CLASSIFICATION_TYPE": "U", "NORAD_CAT_ID": 30396, "ELEMENT_SET_NO": 999, "REV_AT_EPOCH": 95650, "BSTAR": 0.00011661208, "MEAN_MOTION_DOT": 1.12e-06, "MEAN_MOTION_DDOT": 0}, "tle": {"line1": "1 30396U 99025ADK 25351.87323098  .00000112  00000+0  11661-3 0  9993", "line2": "2 30396  98.2238 356.0675 0135158 115.6176   3.8741 13.87170388956501"}}, "geometry": {"type": "Point", "coordinates": [-8.769972281491599, 33.332279300615355]}}, {"type": "Feature", "properties": {"norad_id": 30397, "name": "FENGYUN 1C DEB", "group": "fengyun-1c-debris", "lat": 16.940490253464326, "lon": -37.119066686585086, "alt_km": 890.9304698076539, "timestamp": "2025-12-18T13:51:49.959976+00:00", "meta": {"OBJECT_NAME": "FENGYUN 1C DEB", "OBJECT_ID": "1999-025ADL", "EPOCH": "2025-12-17T22:15:27.238176", "MEAN_MOTION": 13.98603603, "ECCENTRICITY": 0.01496187, "INCLINATION": 98.4049, "RA_OF_ASC_NODE": 139.7034, "ARG_OF_PERICENTER": 78.0259, "MEAN_ANOMALY": 50.7915, "EPHEMERIS_TYPE": 0, "CLASSIFICATION_TYPE": "U", "NORAD_CAT_ID": 30397, "ELEMENT_SET_NO": 999, "REV_AT_EPOCH": 95837, "BSTAR": 0.0008609786, "MEAN_MOTION_DOT": 1.322e-05, "MEAN_MOTION_DDOT": 0}, "tle": {"line1": "1 30397U 99025ADL 25351.92739859  .00001322  00000+0  86098-3 0  9996", "line2": "2 30397  98.4049 139.7034 0149618  78.0259  50.7915 13.98603603958373"}}, "geometry": {"type": "Point", "coordinates": [-37.119066686585086, 16.940490253464326]}}, {"type": "Feature", "properties": {"norad_id": 30398, "name": "FENGYUN 1C DEB", "group": "fengyun-1c-debris", "lat": 20.631788314655527, "lon": 72.94182230624534, "alt_km": 1033.681520443478, "timestamp": "2025-12-18T13:51:49.959986+00:00", "meta": {"OBJECT_NAME": "FENGYUN 1C DEB", "OBJECT_ID": "1999-025ADM", "EPOCH": "2025-12-17T16:18:45.711072", "MEAN_MOTION": 13.78703049, "ECCENTRICITY": 0.01726108, "INCLINATION": 99.7143, "RA_OF_ASC_NODE": 248.3243, "ARG_OF_PERICENTER": 283.1617, "MEAN_ANOMALY": 102.9176, "EPHEMERIS_TYPE": 0, "CLASSIFICATION_TYPE": "U", "NORAD_CAT_ID": 30398, "ELEMENT_SET_NO": 999, "REV_AT_EPOCH": 94825, "BSTAR": 0.00039040642, "MEAN_MOTION_DOT": 3.95e-06, "MEAN_MOTION_DDOT": 0}, "tle": {"line1": "1 30398U 99025ADM 25351.67969573  .00000395  00000+0  39041-3 0  9992", "line2": "2 30398  99.7143 248.3243 0172610 283.1617 102.9176 13.78703049948255"}}, "geometry": {"type": "Point", "coordinates": [72.94182230624534, 20.631788314655527]}}, {"type": "Feature", "properties": {"norad_id": 30400, "name": "FENGYUN 1C DEB", "group": "fengyun-1c-debris", "lat": -75.38928567790087, "lon": -41.57001236320185, "alt_km": 736.0974190694851, "timestamp": "2025-12-18T13:51:49.959997+00:00", "meta": {"OBJECT_NAME": "FENGYUN 1C DEB", "OBJECT_ID": "1999-025ADP", "EPOCH": "2025-12-17T18:05:32.259840", "MEAN_MOTION": 14.10060838, "ECCENTRICITY": 0.02266333, "INCLINATION": 99.1564, "RA_OF_ASC_NODE": 279.369, "ARG_OF_PERICENTER": 321.9564, "MEAN_ANOMALY": 101.5017, "EPHEMERIS_TYPE": 0, "CLASSIFICATION_TYPE": "U", "NORAD_CAT_ID": 30400, "ELEMENT_SET_NO": 999, "REV_AT_EPOCH": 95585, "BSTAR": 0.0031751503, "MEAN_MOTION_DOT": 7.079e-05, "MEAN_MOTION_DDOT": 0}, "tle": {"line1": "1 30400U 99025ADP 25351.75384560  .00007079  00000+0  31752-2 0  9998", "line2": "2 30400  99.1564 279.3690 0226633 321.9564 101.5017 14.10060838955859"}}, "geometry": {"type": "Point", "coordinates": [-41.57001236320185, -75.38928567790087]}}, {"type": "Feature", "properties": {"norad_id": 30401, "name": "FENGYUN 1C DEB", "group": "fengyun-1c-debris", "lat": -37.68018083557338, "lon": -123.40110949368233, "alt_km": 870.8945622563806, "timestamp": "2025-12-18T13:51:49.960007+00:00", "meta": {"OBJECT_NAME": "FENGYUN 1C DEB", "OBJECT_ID": "1999-025ADQ", "EPOCH": "2025-12-18T02:16:24.686688", "MEAN_MOTION": 14.27995493, "ECCENTRICITY": 0.01080314, "INCLINATION": 98.9471, "RA_OF_ASC_NODE": 229.1156, "ARG_OF_PERICENTER": 112.0778, "MEAN_ANOMALY": 249.1915, "EPHEMERIS_TYPE": 0, "CLASSIFICATION_TYPE": "U", "NORAD_CAT_ID": 30401, "ELEMENT_SET_NO": 999, "REV_AT_EPOCH": 98380, "BSTAR": 0.00011793737, "MEAN_MOTION_DOT": 2.66e-06, "MEAN_MOTION_DDOT": 0}, "tle": {"line1": "1 30401U 99025ADQ 25352.09473017  .00000266  00000+0  11794-3 0  9999", "line2": "2 30401  98.9471 229.1156 0108031 112.0778 249.1915 14.27995493983805"}}, "geometry": {"type": "Point", "coordinates": [-123.40110949368233, -37.68018083557338]}}, {"type": "Feature", "properties": {"norad_id": 30403, "name": "FENGYUN 1C DEB", "group": "fengyun-1c-debris", "lat": -1.8222186259311381, "lon": 71.44730719403053, "alt_km": 770.0263737885762, "timestamp": "2025-12-18T13:51:49.960017+00:00", "meta": {"OBJECT_NAME": "FENGYUN 1C DEB", "OBJECT_ID": "1999-025ADS", "EPOCH": "2025-12-18T03:44:14.021376", "MEAN_MOTION": 14.21574534, "ECCENTRICITY": 0.00744466, "INCLINATION": 99.0602, "RA_OF_ASC_NODE": 70.7235, "ARG_OF_PERICENTER": 7.0466, "MEAN_ANOMALY": 353.1739, "EPHEMERIS_TYPE": 0, "CLASSIFICATION_TYPE": "U", "NORAD_CAT_ID": 30403, "ELEMENT_SET_NO": 999, "REV_AT_EPOCH": 96883, "BSTAR": 0.0015192778, "MEAN_MOTION_DOT": 3.379e-05, "MEAN_MOTION_DDOT": 0}, "tle": {"line1": "1 30403U 99025ADS 25352.15571784  .00003379  00000+0  15193-2 0  9992", "line2": "2 30403  99.0602  70.7235 0074446   7.0466 353.1739 14.21574534968831"}}, "geometry": {"type": "Point", "coordinates": [71.44730719403053, -1.8222186259311381]}}, {"type": "Feature", "properties": {"norad_id": 30404, "name": "FENGYUN 1C DEB", "group": "fengyun-1c-debris", "lat": 28.25371078310367, "lon": 78.78801806558167, "alt_km": 1137.2152447470444, "timestamp": "2025-12-18T13:51:49.960027+00:00", "meta": {"OBJECT_NAME": "FENGYUN 1C DEB", "OBJECT_ID": "1999-025ADT", "EPOCH": "2025-12-17T23:19:14.979360", "MEAN_MOTION": 13.34352849, "ECCENTRICITY": 0.03760541, "INCLINATION": 99.8325, "RA_OF_ASC_NODE": 83.5521, "ARG_OF_PERICENTER": 124.0977, "MEAN_ANOMALY": 239.6433, "EPHEMERIS_TYPE": 0, "CLASSIFICATION_TYPE": "U", "NORAD_CAT_ID": 30404, "ELEMENT_SET_NO": 999, "REV_AT_EPOCH": 58106, "BSTAR": 0.00066841715, "MEAN_MOTION_DOT": 4.58e-06, "MEAN_MOTION_DDOT": 0}, "tle": {"line1": "1 30404U 99025ADT 25351.97170115  .00000458  00000+0  66842-3 0  9998", "line2": "2 30404  99.8325  83.5521 0376054 124.0977 239.6433 13.34352849581060"}}, "geometry": {"type": "Point", "coordinates": [78.78801806558167, 28.25371078310367]}}, {"type": "Feature", "properties": {"norad_id": 30405, "name": "FENGYUN 1C DEB", "group": "fengyun-1c-debris", "lat": -29.409667801679447, "lon": 91.61850877239678, "alt_km": 836.8256737043748, "timestamp": "2025-12-18T13:51:49.960037+00:00", "meta": {"OBJECT_NAME": "FENGYUN 1C DEB", "OBJECT_ID": "1999-025ADU", "EPOCH": "2025-12-18T05:51:48.194784", "MEAN_MOTION": 14.28962975, "ECCENTRICITY": 0.00512055, "INCLINATION": 98.7942, "RA_OF_ASC_NODE": 86.2763, "ARG_OF_PERICENTER": 138.201, "MEAN_ANOMALY": 278.3546, "EPHEMERIS_TYPE": 0, "CLASSIFICATION_TYPE": "U", "NORAD_CAT_ID": 30405, "ELEMENT_SET_NO": 999, "REV_AT_EPOCH": 97474, "BSTAR": 0.0013509386, "MEAN_MOTION_DOT": 3.42e-05, "MEAN_MOTION_DDOT": 0}, "tle": {"line1": "1 30405U 99025ADU 25352.24430781  .00003420  00000+0  13509-2 0  9991", "line2": "2 30405  98.7942  86.2763 0051205 138.2010 278.3546 14.28962975974742"}}, "geometry": {"type": "Point", "coordinates": [91.61850877239678, -29.409667801679447]}}, {"type": "Feature", "properties": {"norad_id": 30406, "name": "FENGYUN 1C DEB", "group": "fengyun-1c-debris", "lat": -80.40428444098958, "lon": -1.2601129709275545, "alt_km": 999.9090097126946, "timestamp": "2025-12-18T13:51:49.960048+00:00", "meta": {"OBJECT_NAME": "FENGYUN 1C DEB", "OBJECT_ID": "1999-025ADV", "EPOCH": "2025-12-18T04:31:54.522336", "MEAN_MOTION": 13.59234675, "ECCENTRICITY": 0.02831559, "INCLINATION": 98.621, "RA_OF_ASC_NODE": 242.2058, "ARG_OF_PERICENTER": 345.7542, "MEAN_ANOMALY": 181.5334, "EPHEMERIS_TYPE": 0, "CLASSIFICATION_TYPE": "U", "NORAD_CAT_ID": 30406, "ELEMENT_SET_NO": 999, "REV_AT_EPOCH": 93240, "BSTAR": 0.0018066064, "MEAN_MOTION_DOT": 1.695e-05, "MEAN_MOTION_DDOT": 0}, "tle": {"line1": "1 30406U 99025ADV 25352.18882549  .00001695  00000+0  18066-2 0  9993", "line2": "2 30406  98.6210 242.2058 0283155 345.7542 181.5334 13.59234675932406"}}, "geometry": {"type": "Point", "coordinates": [-1.2601129709275545, -80.40428444098958]}}, {"type": "Feature", "properties": {"norad_id": 30409, "name": "FENGYUN 1C DEB", "group": "fengyun-1c-debris", "lat": -43.053215509608314, "lon": 151.56508377128245, "alt_km": 956.9075240714183, "timestamp": "2025-12-18T13:51:49.960058+00:00", "meta": {"OBJECT_NAME": "FENGYUN 1C DEB", "OBJECT_ID": "1999-025ADY", "EPOCH": "2025-12-17T23:24:01.950912", "MEAN_MOTION": 14.03751349, "ECCENTRICITY": 0.01677334, "INCLINATION": 98.4729, "RA_OF_ASC_NODE": 339.0081, "ARG_OF_PERICENTER": 350.8338, "MEAN_ANOMALY": 70.5601, "EPHEMERIS_TYPE": 0, "CLASSIFICATION_TYPE": "U", "NORAD_CAT_ID": 30409, "ELEMENT_SET_NO": 999, "REV_AT_EPOCH": 96503, "BSTAR": 0.00080872851, "MEAN_MOTION_DOT": 1.401e-05, "MEAN_MOTION_DDOT": 0}, "tle": {"line1": "1 30409U 99025ADY 25351.97502258  .00001401  00000+0  80873-3 0  9999", "line2": "2 30409  98.4729 339.0081 0167733 350.8338  70.5601 14.03751349965037"}}, "geometry": {"type": "Point", "coordinates": [151.56508377128245, -43.053215509608314]}}]}